ONEWEB-0371             
1 49297U 21090U   25069.87345385  .00000035  00000+0  56023-4 0  9995
2 49297  87.9203  37.0465 0002013  79.7312 280.4047 13.19725333165343
ONEWEB-0372             
1 49298U 21090V   25069.83280515  .00000008  00000+0 -11721-4 0  9992
2 49298  87.9331   6.6590 0002017  79.6615 280.4746 13.20770763168670
ONEWEB-0373             
1 49299U 21090W   25069.85978279  .00000027  00000+0  33701-4 0  9998
2 49299  87.9328   6.6662 0001807  86.8641 273.2699 13.20772274169860
ONEWEB-0374             
1 49300U 21090X   25069.86588800  .00000102  00000+0  24041-3 0  9999
2 49300  87.9067  21.8231 0001939  97.4724 262.6626 13.14500797166692
ONEWEB-0375             
1 49301U 21090Y   25069.84714056  .00000029  00000+0  38847-4 0  9990
2 49301  87.9329   6.6462 0001444  97.1906 262.9391 13.20771657169362
ONEWEB-0376             
1 49302U 21090Z   25069.87187622  .00000028  00000+0  37872-4 0  9993
2 49302  87.9196  37.0379 0002185  81.1077 279.0303 13.19725006165346
ONEWEB-0377             
1 49303U 21090AA  25069.83308355 -.00000066  00000+0 -19327-3 0  9996
2 49303  87.9330   6.6416 0001627  73.7904 286.3408 13.20770987169359
ONEWEB-0378             
1 49304U 21090AB  25069.85518063  .00000002  00000+0 -27136-4 0  9995
2 49304  87.9331   6.6434 0001819  83.4382 276.6958 13.20773212168627
